     2.10           NAVIGATION DATA     GPS(GPS)            RINEX VERSION / TYPE
cnvtToRINEX 2.11.0  Stan Thomas         26-Mar-11 14:10 UTC PGM / RUN BY / DATE 
----------------------------------------------------------- COMMENT             
    0.1676D-07  0.7451D-08 -0.1192D-06 -0.5960D-07          ION ALPHA           
    0.1106D+06  0.1638D+05 -0.2621D+06 -0.6554D+05          ION BETA            
    0.000000000000D+00-0.266453525910D-14   503808       92 DELTA-UTC: A0,A1,T,W
    15                                                      LEAP SECONDS        
                                                            END OF HEADER       
28 11  3 23  8  0  0.0 0.268602743745D-04 0.227373675443D-11 0.000000000000D+00
    0.112000000000D+03-0.312500000000D+00 0.422160441820D-08-0.174937474405D+01
    0.160187482834D-06 0.169729825575D-01 0.921636819839D-05 0.515369315720D+04
    0.288000000000D+06 0.339001417160D-06-0.179408552748D+01 0.171363353729D-06
    0.973441812765D+00 0.202906250000D+03-0.189604340260D+01-0.763424656844D-08
    0.684314218720D-09 0.100000000000D+01 0.162800000000D+04 0.000000000000D+00
    0.340000000000D+01 0.000000000000D+00-0.107102096081D-07 0.112000000000D+03
    0.280818000000D+06 0.400000000000D+01 0.000000000000D+00 0.000000000000D+00
 7 11  3 23  8  0  0.0 0.627292320132D-05 0.909494701773D-12 0.000000000000D+00
    0.880000000000D+02-0.114875000000D+03 0.402766776853D-08 0.102108060772D+01
   -0.589713454247D-05 0.423025153577D-02 0.919215381145D-05 0.515367558289D+04
    0.288000000000D+06 0.298023223877D-07-0.287363739526D+01 0.108033418655D-06
    0.974415201882D+00 0.209281250000D+03-0.311378137838D+01-0.789925760721D-08
   -0.134648465792D-09 0.100000000000D+01 0.162800000000D+04 0.000000000000D+00
    0.340000000000D+01 0.000000000000D+00-0.107102096081D-07 0.880000000000D+02
    0.280818000000D+06 0.400000000000D+01 0.000000000000D+00 0.000000000000D+00
17 11  3 23  7 59 44.0 0.184068456292D-03 0.113686837722D-12 0.000000000000D+00
    0.800000000000D+01-0.269687500000D+02 0.500163690968D-08-0.239701111297D+01
   -0.130571424961D-05 0.620475073811D-02 0.571087002754D-05 0.515372304916D+04
    0.287984000000D+06 0.100582838058D-06-0.758241589383D+00-0.894069671631D-07
    0.960978605073D+00 0.268156250000D+03-0.242262887126D+01-0.815676833357D-08
   -0.521450291926D-10 0.100000000000D+01 0.162800000000D+04 0.000000000000D+00
    0.240000000000D+01 0.000000000000D+00-0.102445483208D-07 0.800000000000D+01
    0.280818000000D+06 0.400000000000D+01 0.000000000000D+00 0.000000000000D+00
11 11  3 23  7 59 44.0-0.136697664857D-03-0.306954461848D-11 0.000000000000D+00
    0.260000000000D+02-0.248125000000D+02 0.640026659679D-08 0.113757238670D+01
   -0.115111470222D-05 0.116727214772D-01 0.954419374466D-05 0.515349989319D+04
    0.287984000000D+06-0.141561031342D-06 0.985958216546D-02 0.149011611938D-06
    0.888454201375D+00 0.159593750000D+03 0.915779429363D+00-0.898430280370D-08
   -0.628597612185D-09 0.100000000000D+01 0.162800000000D+04 0.000000000000D+00
    0.240000000000D+01 0.000000000000D+00-0.116415321827D-07 0.260000000000D+02
    0.280956000000D+06 0.400000000000D+01 0.000000000000D+00 0.000000000000D+00
 4 11  3 23  8  0  0.0 0.682258978486D-04 0.103455022327D-10 0.000000000000D+00
    0.310000000000D+02 0.625000000000D+01 0.497985028790D-08-0.543233736803D+00
    0.359490513802D-06 0.958830537274D-02 0.109728425741D-04 0.515361890602D+04
    0.288000000000D+06 0.819563865662D-07 0.261114966452D+00 0.119209289551D-06
    0.938719485800D+00 0.155937500000D+03 0.714011930446D+00-0.825355807954D-08
   -0.560380484954D-09 0.100000000000D+01 0.162800000000D+04 0.000000000000D+00
    0.240000000000D+01 0.000000000000D+00-0.605359673500D-08 0.310000000000D+02
    0.281292000000D+06 0.400000000000D+01 0.000000000000D+00 0.000000000000D+00
 9 11  3 23  8  0  0.0 0.693369656801D-04 0.238742359215D-11 0.000000000000D+00
    0.100000000000D+03-0.888125000000D+02 0.396980821559D-08 0.345682322439D+00
   -0.480003654957D-05 0.171186560765D-01 0.837817788124D-05 0.515367691612D+04
    0.288000000000D+06-0.201165676117D-06-0.290254841767D+01-0.132247805595D-06
    0.983369044651D+00 0.234375000000D+03 0.155814703446D+01-0.811962392921D-08
   -0.147148986489D-09 0.100000000000D+01 0.162800000000D+04 0.000000000000D+00
    0.240000000000D+01 0.000000000000D+00-0.558793544769D-08 0.100000000000D+03
    0.281988000000D+06 0.400000000000D+01 0.000000000000D+00 0.000000000000D+00
 7 11  3 23  7 59 44.0 0.626966357231D-05 0.909494701773D-12 0.000000000000D+00
    0.280000000000D+02-0.114875000000D+03 0.402802492626D-08 0.101874703102D+01
   -0.589713454247D-05 0.423025339842D-02 0.919215381145D-05 0.515367558670D+04
    0.287984000000D+06 0.298023223877D-07-0.287363726067D+01 0.108033418655D-06
    0.974415203344D+00 0.209281250000D+03-0.311378155247D+01-0.789925760721D-08
   -0.134648465792D-09 0.100000000000D+01 0.162800000000D+04 0.000000000000D+00
    0.240000000000D+01 0.000000000000D+00-0.107102096081D-07 0.280000000000D+02
    0.283686000000D+06 0.400000000000D+01 0.000000000000D+00 0.000000000000D+00
 2 11  3 23  8  0  0.0 0.326565001160D-03 0.193267624127D-11 0.000000000000D+00
    0.950000000000D+02 0.500000000000D+00 0.485448792319D-08 0.267632339495D+01
    0.000000000000D+00 0.101148475660D-01 0.114627182484D-04 0.515373218727D+04
    0.288000000000D+06-0.208616256714D-06 0.243654483267D+00-0.447034835815D-07
    0.939625162291D+00 0.148343750000D+03-0.304793475245D+01-0.798854704076D-08
   -0.561451958156D-09 0.100000000000D+01 0.162800000000D+04 0.000000000000D+00
    0.240000000000D+01 0.000000000000D+00-0.172294676304D-07 0.950000000000D+02
    0.284952000000D+06 0.400000000000D+01 0.000000000000D+00 0.000000000000D+00
12 11  3 23  8  0  0.0-0.172448344529D-04 0.284217094304D-11 0.000000000000D+00
    0.510000000000D+02-0.762500000000D+01 0.434303804782D-08 0.106136729281D+01
   -0.407919287682D-06 0.369455537293D-02 0.917352735996D-05 0.515378061295D+04
    0.288000000000D+06 0.102445483208D-06-0.181917912075D+01 0.223517417908D-07
    0.974123594032D+00 0.213218750000D+03-0.261621376026D+00-0.784104089654D-08
    0.500735143343D-09 0.100000000000D+01 0.162800000000D+04 0.000000000000D+00
    0.240000000000D+01 0.000000000000D+00-0.121071934700D-07 0.510000000000D+02
    0.285948000000D+06 0.400000000000D+01 0.000000000000D+00 0.000000000000D+00
20 11  3 23  8  0  0.0 0.487472862005D-04 0.113686837722D-12 0.000000000000D+00
    0.770000000000D+02 0.138281250000D+03 0.502806658201D-08-0.654606746404D+00
    0.714138150215D-05 0.470141216647D-02 0.781193375587D-05 0.515370891190D+04
    0.288000000000D+06 0.372529029846D-08 0.127050426789D+01 0.819563865662D-07
    0.933721132136D+00 0.214937500000D+03 0.127916494187D+01-0.845820946123D-08
    0.136077096729D-09 0.100000000000D+01 0.162800000000D+04 0.000000000000D+00
    0.240000000000D+01 0.000000000000D+00-0.791624188423D-08 0.770000000000D+02
    0.286488000000D+06 0.400000000000D+01 0.000000000000D+00 0.000000000000D+00
24 11  3 23  7 59 44.0 0.375612173229D-03 0.318323145621D-11 0.000000000000D+00
    0.340000000000D+02 0.173125000000D+02 0.469805283562D-08 0.204823117561D+01
    0.101700425148D-05 0.596917292569D-02 0.111795961857D-04 0.515372667503D+04
    0.287984000000D+06 0.115483999252D-06 0.313562264876D+00 0.134110450745D-06
    0.948920656411D+00 0.155406250000D+03-0.300947266267D+00-0.796318884164D-08
   -0.530022077547D-09 0.100000000000D+01 0.162800000000D+04 0.000000000000D+00
    0.240000000000D+01 0.000000000000D+00-0.139698386192D-08 0.340000000000D+02
    0.286698000000D+06 0.400000000000D+01 0.000000000000D+00 0.000000000000D+00
12 11  3 23 10  0  0.0-0.172243453562D-04 0.284217094304D-11 0.000000000000D+00
    0.520000000000D+02-0.946875000000D+01 0.422910473062D-08 0.211113601080D+01
   -0.603497028351D-06 0.369407376274D-02 0.947155058384D-05 0.515378303337D+04
    0.295200000000D+06 0.894069671631D-07-0.181923587759D+01 0.145286321640D-06
    0.974127327399D+00 0.201906250000D+03-0.261276165395D+00-0.783639784600D-08
    0.572523847916D-09 0.100000000000D+01 0.162800000000D+04 0.000000000000D+00
    0.240000000000D+01 0.000000000000D+00-0.121071934700D-07 0.520000000000D+02
    0.288018000000D+06 0.400000000000D+01 0.000000000000D+00 0.000000000000D+00
15 11  3 23 10  0  0.0-0.141074880958D-03 0.306954461848D-11 0.000000000000D+00
    0.340000000000D+02 0.865625000000D+01 0.498520765391D-08-0.211783752149D+01
    0.433996319771D-06 0.339790480211D-02 0.155530869961D-05 0.515358860588D+04
    0.295200000000D+06-0.689178705215D-07 0.233648523128D+01-0.372529029846D-08
    0.950460620534D+00 0.347062500000D+03-0.711486184827D-01-0.865178895317D-08
   -0.217866217860D-10 0.100000000000D+01 0.162800000000D+04 0.000000000000D+00
    0.240000000000D+01 0.000000000000D+00-0.977888703346D-08 0.340000000000D+02
    0.288018000000D+06 0.400000000000D+01 0.000000000000D+00 0.000000000000D+00
 8 11  3 23 10  0  0.0 0.759586691856D-05 0.113686837722D-12 0.000000000000D+00
    0.540000000000D+02-0.105281250000D+03 0.348514517029D-08 0.154008162880D+01
   -0.532902777195D-05 0.114690690534D-01 0.999867916107D-05 0.515361300468D+04
    0.295200000000D+06-0.223517417908D-07-0.279958783071D+01 0.173225998878D-06
    0.996052212316D+00 0.205781250000D+03-0.308329991488D+01-0.761103131572D-08
   -0.220366321999D-09 0.100000000000D+01 0.162800000000D+04 0.000000000000D+00
    0.340000000000D+01 0.000000000000D+00-0.465661287308D-08 0.540000000000D+02
    0.288018000000D+06 0.400000000000D+01 0.000000000000D+00 0.000000000000D+00
